{"type":"FeatureCollection","features":[{"type":"Feature","geometry":{"type":"Polygon","coordinates":[[[35.768211183062704,22.881000485157255],[35.744178590289266,22.86945474525544],[35.763662156573446,22.835286261332744],[35.78683644246212,22.848021352869633],[35.768211183062704,22.881000485157255]]]},"id":"0","properties":{"description":"Mangrove monitoring site","id":"AOI_025","name":"AOI_025"}},{"type":"Feature","geometry":{"type":"Polygon","coordinates":[[[35.80235785786223,22.814687579073276],[35.80390280776169,22.811641598581495],[35.80716436800394,22.813026143503055],[35.805619418166025,22.81595342098687],[35.80235785786223,22.814687579073276]]]},"id":"1","properties":{"description":"Mangrove monitoring site","id":"AOI_026","name":"AOI_026"}},{"type":"Feature","geometry":{"type":"Polygon","coordinates":[[[35.90151340710841,22.716211662870997],[35.908894846317395,22.723495357819083],[35.88537723767482,22.738457384079393],[35.87765247571193,22.73149114163208],[35.90151340710841,22.716211662870997]]]},"id":"2","properties":{"description":"Mangrove monitoring site","id":"AOI_027","name":"AOI_027"}},{"type":"Feature","geometry":{"type":"Polygon","coordinates":[[[35.9957343787126,22.68923185640455],[35.99577729405684,22.695170850426983],[35.96874062718672,22.69691290650873],[35.968440219777044,22.690934394343213],[35.9957343787126,22.68923185640455]]]},"id":"3","properties":{"description":"Mangrove monitoring site","id":"AOI_028","name":"AOI_028"}}]}